{"type": "FeatureCollection", "features": [ {"type": "Feature", "properties": {"norad_id": 67031, "name": "STARLINK-36150", "group": "last-30-days", "lat": -38.74004599236591, "lon": 62.04481439777673, "alt_km": 326.4896953285679, "timestamp": "2025-12-22T15:43:47.688030+00:00", "meta": {"OBJECT_NAME": "STARLINK-36150", "OBJECT_ID": "2025-294B", "EPOCH": "2025-12-22T06:00:02.000160", "MEAN_MOTION": 15.8376313, "ECCENTRICITY": 0.00013937, "INCLINATION": 42.9999, "RA_OF_ASC_NODE": 123.9622, "ARG_OF_PERICENTER": 282.884, "MEAN_ANOMALY": 217.5669, "EPHEMERIS_TYPE": 0, "CLASSIFICATION_TYPE": "U", "NORAD_CAT_ID": 67031, "ELEMENT_SET_NO": 999, "REV_AT_EPOCH": 183, "BSTAR": -0.0094438026, "MEAN_MOTION_DOT": -0.01889251, "MEAN_MOTION_DDOT": 0}, "tle": {"line1": "1 67031U 25294B   25356.25002315 -.01889251  00000+0 -94438-2 0  9993", "line2": "2 67031  42.9999 123.9622 0001393 282.8840 217.5669 15.83763130  1839"}}, "geometry": {"type": "Point", "coordinates": [62.04481439777673, -38.74004599236591]}}, {"type": "Feature", "properties": {"norad_id": 67032, "name": "STARLINK-36131", "group": "last-30-days", "lat": -37.16866125905861, "lon": 67.00909532086658, "alt_km": 326.5346785795982, "timestamp": "2025-12-22T15:43:47.688040+00:00", "meta": {"OBJECT_NAME": "STARLINK-36131", "OBJECT_ID": "2025-294C", "EPOCH": "2025-12-22T06:00:02.000160", "MEAN_MOTION": 15.83752553, "ECCENTRICITY": 0.00014325, "INCLINATION": 43, "RA_OF_ASC_NODE": 123.9515, "ARG_OF_PERICENTER": 271.8, "MEAN_ANOMALY": 232.893, "EPHEMERIS_TYPE": 0, "CLASSIFICATION_TYPE": "U", "NORAD_CAT_ID": 67032, "ELEMENT_SET_NO": 999, "REV_AT_EPOCH": 164, "BSTAR": -0.0094613596, "MEAN_MOTION_DOT": -0.0189151, "MEAN_MOTION_DDOT": 0}, "tle": {"line1": "1 67032U 25294C   25356.25002315 -.01891510  00000+0 -94614-2 0  9991", "line2": "2 67032  43.0000 123.9515 0001432 271.8000 232.8930 15.83752553  1643"}}, "geometry": {"type": "Point", "coordinates": [67.00909532086658, -37.16866125905861]}}, {"type": "Feature", "properties": {"norad_id": 67033, "name": "STARLINK-36137", "group": "last-30-days", "lat": -37.98741068219761, "lon": 64.53164054598251, "alt_km": 326.54695204203654, "timestamp": "2025-12-22T15:43:47.688050+00:00", "meta": {"OBJECT_NAME": "STARLINK-36137", "OBJECT_ID": "2025-294D", "EPOCH": "2025-12-22T06:00:02.000160", "MEAN_MOTION": 15.83754863, "ECCENTRICITY": 0.00013353, "INCLINATION": 42.9998, "RA_OF_ASC_NODE": 123.9571, "ARG_OF_PERICENTER": 277.7039, "MEAN_ANOMALY": 224.8503, "EPHEMERIS_TYPE": 0, "CLASSIFICATION_TYPE": "U", "NORAD_CAT_ID": 67033, "ELEMENT_SET_NO": 999, "REV_AT_EPOCH": 164, "BSTAR": -0.0094259055, "MEAN_MOTION_DOT": -0.01885416, "MEAN_MOTION_DDOT": 0}, "tle": {"line1": "1 67033U 25294D   25356.25002315 -.01885416  00000+0 -94259-2 0  9995", "line2": "2 67033  42.9998 123.9571 0001335 277.7039 224.8503 15.83754863  1642"}}, "geometry": {"type": "Point", "coordinates": [64.53164054598251, -37.98741068219761]}}, {"type": "Feature", "properties": {"norad_id": 67034, "name": "STARLINK-36140", "group": "last-30-days", "lat": -36.23773932155881, "lon": 69.59547785920265, "alt_km": 326.4823007002942, "timestamp": "2025-12-22T15:43:47.688060+00:00", "meta": {"OBJECT_NAME": "STARLINK-36140", "OBJECT_ID": "2025-294E", "EPOCH": "2025-12-22T06:00:02.000160", "MEAN_MOTION": 15.83744099, "ECCENTRICITY": 0.00016372, "INCLINATION": 42.9998, "RA_OF_ASC_NODE": 123.946, "ARG_OF_PERICENTER": 267.0063, "MEAN_ANOMALY": 239.9795, "EPHEMERIS_TYPE": 0, "CLASSIFICATION_TYPE": "U", "NORAD_CAT_ID": 67034, "ELEMENT_SET_NO": 999, "REV_AT_EPOCH": 164, "BSTAR": -0.0094965818, "MEAN_MOTION_DOT": -0.01897177, "MEAN_MOTION_DDOT": 0}, "tle": {"line1": "1 67034U 25294E   25356.25002315 -.01897177  00000+0 -94966-2 0  9998", "line2": "2 67034  42.9998 123.9460 0001637 267.0063 239.9795 15.83744099  1644"}}, "geometry": {"type": "Point", "coordinates": [69.59547785920265, -36.23773932155881]}}, {"type": "Feature", "properties": {"norad_id": 67035, "name": "STARLINK-36085", "group": "last-30-days", "lat": -34.19429090482711, "lon": 74.62936438981552, "alt_km": 326.64858466835904, "timestamp": "2025-12-22T15:43:47.688069+00:00", "meta": {"OBJECT_NAME": "STARLINK-36085", "OBJECT_ID": "2025-294F", "EPOCH": "2025-12-22T06:00:02.000160", "MEAN_MOTION": 15.8371565, "ECCENTRICITY": 0.00013325, "INCLINATION": 43, "RA_OF_ASC_NODE": 123.934, "ARG_OF_PERICENTER": 271.1495, "MEAN_ANOMALY": 240.4883, "EPHEMERIS_TYPE": 0, "CLASSIFICATION_TYPE": "U", "NORAD_CAT_ID": 67035, "ELEMENT_SET_NO": 999, "REV_AT_EPOCH": 164, "BSTAR": -0.0095276896, "MEAN_MOTION_DOT": -0.01900008, "MEAN_MOTION_DDOT": 0}, "tle": {"line1": "1 67035U 25294F   25356.25002315 -.01900008  00000+0 -95277-2 0  9993", "line2": "2 67035  43.0000 123.9340 0001332 271.1495 240.4883 15.83715650  1641"}}, "geometry": {"type": "Point", "coordinates": [74.62936438981552, -34.19429090482711]}}, {"type": "Feature", "properties": {"norad_id": 67036, "name": "STARLINK-36125", "group": "last-30-days", "lat": -35.245285562156944, "lon": 72.13644046060028, "alt_km": 326.5400864656449, "timestamp": "2025-12-22T15:43:47.688079+00:00", "meta": {"OBJECT_NAME": "STARLINK-36125", "OBJECT_ID": "2025-294G", "EPOCH": "2025-12-22T06:00:02.000160", "MEAN_MOTION": 15.83721542, "ECCENTRICITY": 0.0001399, "INCLINATION": 42.9998, "RA_OF_ASC_NODE": 123.9401, "ARG_OF_PERICENTER": 274.7408, "MEAN_ANOMALY": 234.5695, "EPHEMERIS_TYPE": 0, "CLASSIFICATION_TYPE": "U", "NORAD_CAT_ID": 67036, "ELEMENT_SET_NO": 999, "REV_AT_EPOCH": 183, "BSTAR": -0.0094441811, "MEAN_MOTION_DOT": -0.01886021, "MEAN_MOTION_DDOT": 0}, "tle": {"line1": "1 67036U 25294G   25356.25002315 -.01886021  00000+0 -94442-2 0  9995", "line2": "2 67036  42.9998 123.9401 0001399 274.7408 234.5695 15.83721542  1833"}}, "geometry": {"type": "Point", "coordinates": [72.13644046060028, -35.245285562156944]}}, {"type": "Feature", "properties": {"norad_id": 67037, "name": "STARLINK-35732", "group": "last-30-days", "lat": -33.029238350127564, "lon": 77.19651001569117, "alt_km": 326.67135771762514, "timestamp": "2025-12-22T15:43:47.688090+00:00", "meta": {"OBJECT_NAME": "STARLINK-35732", "OBJECT_ID": "2025-294H", "EPOCH": "2025-12-22T06:00:02.000160", "MEAN_MOTION": 15.83696058, "ECCENTRICITY": 0.00013611, "INCLINATION": 42.9997, "RA_OF_ASC_NODE": 123.928, "ARG_OF_PERICENTER": 268.8846, "MEAN_ANOMALY": 245.2196, "EPHEMERIS_TYPE": 0, "CLASSIFICATION_TYPE": "U", "NORAD_CAT_ID": 67037, "ELEMENT_SET_NO": 999, "REV_AT_EPOCH": 175, "BSTAR": -0.0095150183, "MEAN_MOTION_DOT": -0.01896275, "MEAN_MOTION_DDOT": 0}, "tle": {"line1": "1 67037U 25294H   25356.25002315 -.01896275  00000+0 -95150-2 0  9995", "line2": "2 67037  42.9997 123.9280 0001361 268.8846 245.2196 15.83696058  1756"}}, "geometry": {"type": "Point", "coordinates": [77.19651001569117, -33.029238350127564]}}, {"type": "Feature", "properties": {"norad_id": 67038, "name": "STARLINK-35775", "group": "last-30-days", "lat": -31.968535652406278, "lon": 79.38479446437198, "alt_km": 326.58397046886967, "timestamp": "2025-12-22T15:43:47.688101+00:00", "meta": {"OBJECT_NAME": "STARLINK-35775", "OBJECT_ID": "2025-294J", "EPOCH": "2025-12-22T06:00:02.000160", "MEAN_MOTION": 15.8368754, "ECCENTRICITY": 0.0001382, "INCLINATION": 42.9999, "RA_OF_ASC_NODE": 123.9223, "ARG_OF_PERICENTER": 272.8077, "MEAN_ANOMALY": 243.444, "EPHEMERIS_TYPE": 0, "CLASSIFICATION_TYPE": "U", "NORAD_CAT_ID": 67038, "ELEMENT_SET_NO": 999, "REV_AT_EPOCH": 175, "BSTAR": -0.009511056, "MEAN_MOTION_DOT": -0.01894929, "MEAN_MOTION_DDOT": 0}, "tle": {"line1": "1 67038U 25294J   25356.25002315 -.01894929  00000+0 -95111-2 0  9997", "line2": "2 67038  42.9999 123.9223 0001382 272.8077 243.4440 15.83687540  1758"}}, "geometry": {"type": "Point", "coordinates": [79.38479446437198, -31.968535652406278]}}, {"type": "Feature", "properties": {"norad_id": 67039, "name": "STARLINK-35705", "group": "last-30-days", "lat": -29.669309142102268, "lon": 83.73517901207535, "alt_km": 326.57785710148255, "timestamp": "2025-12-22T15:43:47.688110+00:00", "meta": {"OBJECT_NAME": "STARLINK-35705", "OBJECT_ID": "2025-294K", "EPOCH": "2025-12-22T06:00:02.000160", "MEAN_MOTION": 15.83673612, "ECCENTRICITY": 0.00013428, "INCLINATION": 42.9999, "RA_OF_ASC_NODE": 123.9114, "ARG_OF_PERICENTER": 272.575, "MEAN_ANOMALY": 248.0999, "EPHEMERIS_TYPE": 0, "CLASSIFICATION_TYPE": "U", "NORAD_CAT_ID": 67039, "ELEMENT_SET_NO": 999, "REV_AT_EPOCH": 164, "BSTAR": -0.009553248, "MEAN_MOTION_DOT": -0.01901097, "MEAN_MOTION_DDOT": 0}, "tle": {"line1": "1 67039U 25294K   25356.25002315 -.01901097  00000+0 -95532-2 0  9990", "line2": "2 67039  42.9999 123.9114 0001342 272.5750 248.0999 15.83673612  1642"}}, "geometry": {"type": "Point", "coordinates": [83.73517901207535, -29.669309142102268]}}, {"type": "Feature", "properties": {"norad_id": 67040, "name": "STARLINK-35786", "group": "last-30-days", "lat": -30.790859446824587, "lon": 81.67413698529963, "alt_km": 326.6822595942831, "timestamp": "2025-12-22T15:43:47.688120+00:00", "meta": {"OBJECT_NAME": "STARLINK-35786", "OBJECT_ID": "2025-294L", "EPOCH": "2025-12-22T06:00:02.000160", "MEAN_MOTION": 15.83676627, "ECCENTRICITY": 0.00012426, "INCLINATION": 43.0001, "RA_OF_ASC_NODE": 123.9168, "ARG_OF_PERICENTER": 271.4082, "MEAN_ANOMALY": 247.1499, "EPHEMERIS_TYPE": 0, "CLASSIFICATION_TYPE": "U", "NORAD_CAT_ID": 67040, "ELEMENT_SET_NO": 999, "REV_AT_EPOCH": 164, "BSTAR": -0.0095325751, "MEAN_MOTION_DOT": -0.01897656, "MEAN_MOTION_DDOT": 0}, "tle": {"line1": "1 67040U 25294L   25356.25002315 -.01897656  00000+0 -95326-2 0  9998", "line2": "2 67040  43.0001 123.9168 0001242 271.4082 247.1499 15.83676627  1648"}}, "geometry": {"type": "Point", "coordinates": [81.67413698529963, -30.790859446824587]}}]}